{
  "type": "FeatureCollection",
  "features": [
    {
      "type": "Feature",
      "properties": {
        "norad_id": 31183,
        "name": "FENGYUN 1C DEB",
        "group": "fengyun-1c-debris",
        "lat": -23.797124851023813,
        "lon": -14.903883115853382,
        "alt_km": 736.5267669460691,
        "timestamp": "2025-12-22T14:45:57.683519+00:00",
        "meta_object_name": "FENGYUN 1C DEB",
        "meta_object_id": "1999-025BJM",
        "meta_epoch": "2025-12-22T05:00:46.876032",
        "meta_mean_motion": 14.50515852,
        "meta_eccentricity": 0.0047814,
        "meta_inclination": 99.0371,
        "meta_ra_of_asc_node": 340.6356,
        "meta_arg_of_pericenter": 79.5767,
        "meta_mean_anomaly": 296.1391,
        "meta_ephemeris_type": 0,
        "meta_classification_type": "U",
        "meta_norad_cat_id": 31183,
        "meta_element_set_no": 999,
        "meta_rev_at_epoch": 97620,
        "meta_bstar": 0.0013102144,
        "meta_mean_motion_dot": 5.156e-05,
        "meta_mean_motion_ddot": 0,
        "tle_line1": "1 31183U 99025BJM 25356.20887588  .00005156  00000+0  13102-2 0  9993",
        "tle_line2": "2 31183  99.0371 340.6356 0047814  79.5767 296.1391 14.50515852976200"
      },
      "geometry": {
        "type": "Point",
        "coordinates": [
          -14.903883115853382,
          -23.797124851023813
        ]
      }
    },
    {
      "type": "Feature",
      "properties": {
        "norad_id": 31185,
        "name": "FENGYUN 1C DEB",
        "group": "fengyun-1c-debris",
        "lat": 40.233074381719334,
        "lon": -14.765020730780506,
        "alt_km": 856.2549844645118,
        "timestamp": "2025-12-22T14:45:57.683529+00:00",
        "meta_object_name": "FENGYUN 1C DEB",
        "meta_object_id": "1999-025BJP",
        "meta_epoch": "2025-12-03T06:44:56.905152",
        "meta_mean_motion": 14.03019915,
        "meta_eccentricity": 0.0041359,
        "meta_inclination": 98.8321,
        "meta_ra_of_asc_node": 334.0356,
        "meta_arg_of_pericenter": 132.5488,
        "meta_mean_anomaly": 227.9182,
        "meta_ephemeris_type": 0,
        "meta_classification_type": "U",
        "meta_norad_cat_id": 31185,
        "meta_element_set_no": 999,
        "meta_rev_at_epoch": 62204,
        "meta_bstar": 0.0004459,
        "meta_mean_motion_dot": 6.55e-06,
        "meta_mean_motion_ddot": 0,
        "tle_line1": "1 31185U 99025BJP 25337.28121418  .00000655  00000+0  44590-3 0  9990",
        "tle_line2": "2 31185  98.8321 334.0356 0041359 132.5488 227.9182 14.03019915622046"
      },
      "geometry": {
        "type": "Point",
        "coordinates": [
          -14.765020730780506,
          40.233074381719334
        ]
      }
    },
    {
      "type": "Feature",
      "properties": {
        "norad_id": 31186,
        "name": "FENGYUN 1C DEB",
        "group": "fengyun-1c-debris",
        "lat": -35.02678154897211,
        "lon": 85.71316645983161,
        "alt_km": 874.6062386774247,
        "timestamp": "2025-12-22T14:45:57.683540+00:00",
        "meta_object_name": "FENGYUN 1C DEB",
        "meta_object_id": "1999-025BJQ",
        "meta_epoch": "2025-12-21T13:06:21.566016",
        "meta_mean_motion": 14.12920927,
        "meta_eccentricity": 0.0026334,
        "meta_inclination": 99.1789,
        "meta_ra_of_asc_node": 271.1249,
        "meta_arg_of_pericenter": 39.1426,
        "meta_mean_anomaly": 140.9615,
        "meta_ephemeris_type": 0,
        "meta_classification_type": "U",
        "meta_norad_cat_id": 31186,
        "meta_element_set_no": 999,
        "meta_rev_at_epoch": 96229,
        "meta_bstar": 0.00037163,
        "meta_mean_motion_dot": 6.48e-06,
        "meta_mean_motion_ddot": 0,
        "tle_line1": "1 31186U 99025BJQ 25355.54608294  .00000648  00000+0  37163-3 0  9992",
        "tle_line2": "2 31186  99.1789 271.1249 0026334  39.1426 140.9615 14.12920927962294"
      },
      "geometry": {
        "type": "Point",
        "coordinates": [
          85.71316645983161,
          -35.02678154897211
        ]
      }
    },
    {
      "type": "Feature",
      "properties": {
        "norad_id": 31187,
        "name": "FENGYUN 1C DEB",
        "group": "fengyun-1c-debris",
        "lat": -35.247875627588336,
        "lon": -132.20412324017303,
        "alt_km": 799.4086605634357,
        "timestamp": "2025-12-22T14:45:57.683550+00:00",
        "meta_object_name": "FENGYUN 1C DEB",
        "meta_object_id": "1999-025BJR",
        "meta_epoch": "2025-12-21T10:58:01.324992",
        "meta_mean_motion": 14.59636852,
        "meta_eccentricity": 0.02193421,
        "meta_inclination": 99.2407,
        "meta_ra_of_asc_node": 219.8994,
        "meta_arg_of_pericenter": 197.2347,
        "meta_mean_anomaly": 162.132,
        "meta_ephemeris_type": 0,
        "meta_classification_type": "U",
        "meta_norad_cat_id": 31187,
        "meta_element_set_no": 999,
        "meta_rev_at_epoch": 69227,
        "meta_bstar": 0.0019708223,
        "meta_mean_motion_dot": 0.0001311,
        "meta_mean_motion_ddot": 0,
        "tle_line1": "1 31187U 99025BJR 25355.45695978  .00013110  00000+0  19708-2 0  9990",
        "tle_line2": "2 31187  99.2407 219.8994 0219342 197.2347 162.1320 14.59636852692279"
      },
      "geometry": {
        "type": "Point",
        "coordinates": [
          -132.20412324017303,
          -35.247875627588336
        ]
      }
    },
    {
      "type": "Feature",
      "properties": {
        "norad_id": 31188,
        "name": "FENGYUN 1C DEB",
        "group": "fengyun-1c-debris",
        "lat": -68.45712813427441,
        "lon": 87.3083636880875,
        "alt_km": 803.4232116754574,
        "timestamp": "2025-12-22T14:45:57.683560+00:00",
        "meta_object_name": "FENGYUN 1C DEB",
        "meta_object_id": "1999-025BJS",
        "meta_epoch": "2025-12-21T22:30:01.215648",
        "meta_mean_motion": 14.23880815,
        "meta_eccentricity": 0.00607341,
        "meta_inclination": 98.7477,
        "meta_ra_of_asc_node": 63.6782,
        "meta_arg_of_pericenter": 223.0092,
        "meta_mean_anomaly": 194.0466,
        "meta_ephemeris_type": 0,
        "meta_classification_type": "U",
        "meta_norad_cat_id": 31188,
        "meta_element_set_no": 999,
        "meta_rev_at_epoch": 96467,
        "meta_bstar": 0.0014132014,
        "meta_mean_motion_dot": 3.256e-05,
        "meta_mean_motion_ddot": 0,
        "tle_line1": "1 31188U 99025BJS 25355.93751407  .00003256  00000+0  14132-2 0  9990",
        "tle_line2": "2 31188  98.7477  63.6782 0060734 223.0092 194.0466 14.23880815964677"
      },
      "geometry": {
        "type": "Point",
        "coordinates": [
          87.3083636880875,
          -68.45712813427441
        ]
      }
    },
    {
      "type": "Feature",
      "properties": {
        "norad_id": 31190,
        "name": "FENGYUN 1C DEB",
        "group": "fengyun-1c-debris",
        "lat": 81.05100551805604,
        "lon": -71.30935266265367,
        "alt_km": 913.0392546310259,
        "timestamp": "2025-12-22T14:45:57.683571+00:00",
        "meta_object_name": "FENGYUN 1C DEB",
        "meta_object_id": "1999-025BJU",
        "meta_epoch": "2025-12-15T23:14:05.075520",
        "meta_mean_motion": 14.03609027,
        "meta_eccentricity": 0.00676763,
        "meta_inclination": 98.819,
        "meta_ra_of_asc_node": 2.5971,
        "meta_arg_of_pericenter": 250.3103,
        "meta_mean_anomaly": 109.0754,
        "meta_ephemeris_type": 0,
        "meta_classification_type": "U",
        "meta_norad_cat_id": 31190,
        "meta_element_set_no": 999,
        "meta_rev_at_epoch": 95592,
        "meta_bstar": 0.00091857664,
        "meta_mean_motion_dot": 1.428e-05,
        "meta_mean_motion_ddot": 0,
        "tle_line1": "1 31190U 99025BJU 25349.96811430  .00001428  00000+0  91858-3 0  9992",
        "tle_line2": "2 31190  98.8190   2.5971 0067676 250.3103 109.0754 14.03609027955929"
      },
      "geometry": {
        "type": "Point",
        "coordinates": [
          -71.30935266265367,
          81.05100551805604
        ]
      }
    },
    {
      "type": "Feature",
      "properties": {
        "norad_id": 31191,
        "name": "FENGYUN 1C DEB",
        "group": "fengyun-1c-debris",
        "lat": -21.724068340764774,
        "lon": 74.23939449675707,
        "alt_km": 708.002563086713,
        "timestamp": "2025-12-22T14:45:57.683581+00:00",
        "meta_object_name": "FENGYUN 1C DEB",
        "meta_object_id": "1999-025BJV",
        "meta_epoch": "2025-12-21T04:30:07.407072",
        "meta_mean_motion": 14.40807642,
        "meta_eccentricity": 0.00926723,
        "meta_inclination": 98.7829,
        "meta_ra_of_asc_node": 256.3053,
        "meta_arg_of_pericenter": 169.2422,
        "meta_mean_anomaly": 191.0777,
        "meta_ephemeris_type": 0,
        "meta_classification_type": "U",
        "meta_norad_cat_id": 31191,
        "meta_element_set_no": 999,
        "meta_rev_at_epoch": 98134,
        "meta_bstar": 0.00021133033,
        "meta_mean_motion_dot": 6.63e-06,
        "meta_mean_motion_ddot": 0,
        "tle_line1": "1 31191U 99025BJV 25355.18758573  .00000663  00000+0  21133-3 0  9991",
        "tle_line2": "2 31191  98.7829 256.3053 0092672 169.2422 191.0777 14.40807642981349"
      },
      "geometry": {
        "type": "Point",
        "coordinates": [
          74.23939449675707,
          -21.724068340764774
        ]
      }
    }
  ]
}